NORAD_CAT_ID,OBJECT_NAME,OBJECT_TYPE,EPOCH,MEAN_MOTION,ECCENTRICITY,INCLINATION,RA_OF_ASC_NODE,ARG_OF_PERICENTER,MEAN_ANOMALY,BSTAR,MEAN_MOTION_DOT,MEAN_MOTION_DDOT,TLE_LINE0,TLE_LINE1,TLE_LINE2,SEMIMAJOR_AXIS,PERIOD,APOGEE,PERIGEE,DECAYED
51882.0,STARLINK-3570,PAYLOAD,2023-10-27 08:27:46,15.08858426,0.0001671,53.2162,279.2882,104.2133,255.9044,0.00043044,6.572e-05,0.0,0 STARLINK-3570,1 51882U 22022AG  23300.35262240  .00006572  00000-0  43044-3 0  9992,2 51882  53.2162 279.2882 0001671 104.2133 255.9044 15.08858426 92818,6917.824,95.436,540.845,538.533,0.0
51882.0,STARLINK-3570,PAYLOAD,2023-10-27 22:46:15,15.08839685,0.0001746,53.2151,276.6137,87.8671,272.2521,0.00011449,1.534e-05,0.0,0 STARLINK-3570,1 51882U 22022AG  23300.94879142  .00001534  00000-0  11449-3 0  9999,2 51882  53.2151 276.6137 0001746  87.8671 272.2521 15.08839685 92904,6917.881,95.438,540.954,538.538,0.0
51882.0,STARLINK-3570,PAYLOAD,2023-10-28 05:07:47,15.08851923,0.0001584,53.2167,275.4229,89.1762,270.9412,0.00036096,5.463e-05,0.0,0 STARLINK-3570,1 51882U 22022AG  23301.21374712  .00005463  00000-0  36096-3 0  9993,2 51882  53.2167 275.4229 0001584  89.1762 270.9412 15.08851923 92943,6917.844,95.437,540.805,538.613,0.0
51882.0,STARLINK-3570,PAYLOAD,2023-10-29 04:58:34,15.08849489,0.0001354,53.2159,270.9629,84.135,275.9796,0.00037068,5.618e-05,0.0,0 STARLINK-3570,1 51882U 22022AG  23302.20734810  .00005618  00000-0  37068-3 0  9994,2 51882  53.2159 270.9629 0001354  84.1350 275.9796 15.08849489 93092,6917.851,95.437,540.653,538.78,0.0
51882.0,STARLINK-3570,PAYLOAD,2023-10-29 20:52:26,15.0884142,0.0001621,53.2173,267.9917,95.0626,265.0552,0.00023991,3.532e-05,0.0,0 STARLINK-3570,1 51882U 22022AG  23302.86975308  .00003532  00000-0  23991-3 0  9998,2 51882  53.2173 267.9917 0001621  95.0626 265.0552 15.08841420 93196,6917.876,95.437,540.862,538.62,0.0
51882.0,STARLINK-3570,PAYLOAD,2023-10-29 22:27:49,15.08837846,0.0001602,53.2179,267.6923,89.5748,270.5428,0.00022524,3.298e-05,0.0,0 STARLINK-3570,1 51882U 22022AG  23302.93599362  .00003298  00000-0  22524-3 0  9998,2 51882  53.2179 267.6923 0001602  89.5748 270.5428 15.08837846 93200,6917.887,95.438,540.86,538.644,0.0
51882.0,STARLINK-3570,PAYLOAD,2023-10-30 20:43:14,15.08833393,0.0001578,53.2163,263.53,89.9948,270.1225,2.6555e-05,1.35e-06,0.0,0 STARLINK-3570,1 51882U 22022AG  23303.86335824  .00000135  00000-0  26555-4 0  9998,2 51882  53.2163 263.5300 0001578  89.9948 270.1225 15.08833393 93344,6917.901,95.438,540.857,538.674,0.0
51882.0,STARLINK-3570,PAYLOAD,2023-10-30 22:18:37,15.08832399,0.0001496,53.2162,263.2328,92.323,267.7934,1.859e-05,8e-08,0.0,0 STARLINK-3570,1 51882U 22022AG  23303.92959885  .00000008  00000-0  18590-4 0  9993,2 51882  53.2162 263.2328 0001496  92.3230 267.7934 15.08832399 93356,6917.904,95.438,540.804,538.734,0.0
51882.0,STARLINK-3570,PAYLOAD,2023-10-31 07:50:55,15.08844546,0.0001689,53.2169,261.4484,95.5205,264.598,0.00035956,5.44e-05,0.0,0 STARLINK-3570,1 51882U 22022AG  23304.32703678  .00005440  00000-0  35956-3 0  9994,2 51882  53.2169 261.4484 0001689  95.5205 264.5980 15.08844546 93417,6917.866,95.437,540.9,538.563,0.0
51882.0,STARLINK-3570,PAYLOAD,2023-10-31 14:12:28,15.08839833,0.0001581,53.217,260.2569,85.7461,274.3711,0.00039719,6.039e-05,0.0,0 STARLINK-3570,1 51882U 22022AG  23304.59199971  .00006039  00000-0  39719-3 0  9994,2 51882  53.2170 260.2569 0001581  85.7461 274.3711 15.08839833 93454,6917.881,95.438,540.84,538.652,0.0
51882.0,STARLINK-3570,PAYLOAD,2023-11-01 04:30:57,15.08837289,0.0001891,53.2184,257.5817,86.516,273.6049,0.00011409,1.528e-05,0.0,0 STARLINK-3570,1 51882U 22022AG  23305.18816243  .00001528  00000-0  11409-3 0  9992,2 51882  53.2184 257.5817 0001891  86.5160 273.6049 15.08837289 93542,6917.889,95.438,541.062,538.446,0.0
51882.0,STARLINK-3570,PAYLOAD,2023-11-01 14:03:16,15.0883784,0.0001912,53.2187,255.7983,79.7271,280.3937,6.1272e-05,6.87e-06,0.0,0 STARLINK-3570,1 51882U 22022AG  23305.58560380  .00000687  00000-0  61272-4 0  9993,2 51882  53.2187 255.7983 0001912  79.7271 280.3937 15.08837840 93601,6917.887,95.438,541.075,538.429,0.0
51882.0,STARLINK-3570,PAYLOAD,2023-11-01 20:24:48,15.08835223,0.0001613,53.2172,254.6101,84.1209,275.9967,0.00012593,1.716e-05,0.0,0 STARLINK-3570,1 51882U 22022AG  23305.85056543  .00001716  00000-0  12593-3 0  9999,2 51882  53.2172 254.6101 0001613  84.1209 275.9967 15.08835223 93644,6917.895,95.438,540.876,538.644,0.0
51882.0,STARLINK-3570,PAYLOAD,2023-11-02 13:54:02,15.08843978,0.0001629,53.2178,251.3403,93.7761,266.3417,9.2631e-05,1.187e-05,0.0,0 STARLINK-3570,1 51882U 22022AG  23306.57920096  .00001187  00000-0  92631-4 0  9996,2 51882  53.2178 251.3403 0001629  93.7761 266.3417 15.08843978 93757,6917.868,95.437,540.86,538.606,0.0
51882.0,STARLINK-3570,PAYLOAD,2023-11-03 13:44:50,15.08837518,0.0001776,53.2178,246.8806,79.8643,280.2549,4.9494e-05,5e-06,0.0,0 STARLINK-3570,1 51882U 22022AG  23307.57280669  .00000500  00000-0  49494-4 0  9999,2 51882  53.2178 246.8806 0001776  79.8643 280.2549 15.08837518 93901,6917.888,95.438,540.982,538.524,0.0
51882.0,STARLINK-3570,PAYLOAD,2023-11-03 20:06:22,15.08838372,0.0001511,53.2174,245.6911,80.0381,280.0782,5.4145e-05,5.74e-06,0.0,0 STARLINK-3570,1 51882U 22022AG  23307.83776524  .00000574  00000-0  54145-4 0  9998,2 51882  53.2174 245.6911 0001511  80.0381 280.0782 15.08838372 93941,6917.885,95.438,540.796,538.705,0.0
51882.0,STARLINK-3570,PAYLOAD,2023-11-04 02:27:54,15.08850999,0.0001469,53.2165,244.4992,89.8035,270.3125,0.00016305,2.309e-05,0.0,0 STARLINK-3570,1 51882U 22022AG  23308.10271857  .00002309  00000-0  16305-3 0  9991,2 51882  53.2165 244.4992 0001469  89.8035 270.3125 15.08850999 93988,6917.847,95.437,540.728,538.696,0.0
51882.0,STARLINK-3570,PAYLOAD,2023-11-04 05:38:41,15.08854432,0.00015,53.2161,243.9038,93.9732,266.1432,0.00031435,4.72e-05,0.0,0 STARLINK-3570,1 51882U 22022AG  23308.23519732  .00004720  00000-0  31435-3 0  9992,2 51882  53.2161 243.9038 0001500  93.9732 266.1432 15.08854432 94009,6917.836,95.437,540.739,538.664,0.0
51882.0,STARLINK-3570,PAYLOAD,2023-11-05 02:18:41,15.08856637,0.0001407,53.2169,240.0376,107.149,252.9656,0.00049924,7.67e-05,0.0,0 STARLINK-3570,1 51882U 22022AG  23309.09631784  .00007670  00000-0  49924-3 0  9998,2 51882  53.2169 240.0376 0001407 107.1490 252.9656 15.08856637 94139,6917.83,95.437,540.668,538.721,0.0
51882.0,STARLINK-3570,PAYLOAD,2023-11-06 02:09:27,15.08928414,0.0001353,53.2159,235.5796,100.786,259.3285,0.0037764,0.00060476,0.0,0 STARLINK-3570,1 51882U 22022AG  23310.08989919  .00060476  00000-0  37764-2 0  9996,2 51882  53.2159 235.5796 0001353 100.7860 259.3285 15.08928414 94281,6917.61,95.432,540.411,538.539,0.0
51882.0,STARLINK-3570,PAYLOAD,2023-11-07 02:00:18,15.08787024,0.000127,53.2161,231.1189,91.3938,268.72,0.001001,0.00015656,0.0,0 STARLINK-3570,1 51882U 22022AG  23311.08354735  .00015656  00000-0  10010-2 0  9994,2 51882  53.2161 231.1189 0001270  91.3938 268.7200 15.08787024 94439,6918.042,95.441,540.786,539.029,0.0
51882.0,STARLINK-3570,PAYLOAD,2023-11-07 11:32:37,15.08811162,0.0001259,53.2162,229.3341,101.0502,259.0631,0.0017381,0.0002746,0.0,0 STARLINK-3570,1 51882U 22022AG  23311.48098983  .00027460  00000-0  17381-2 0  9992,2 51882  53.2162 229.3341 0001259 101.0502 259.0631 15.08811162 94490,6917.969,95.439,540.705,538.963,0.0
51882.0,STARLINK-3570,PAYLOAD,2023-11-08 03:26:28,15.08856425,0.0001458,53.2161,226.3613,116.6989,243.4152,0.0030461,0.00048547,0.0,0 STARLINK-3570,1 51882U 22022AG  23312.14338380  .00048547  00000-0  30461-2 0  9997,2 51882  53.2161 226.3613 0001458 116.6989 243.4152 15.08856425 94597,6917.83,95.437,540.704,538.687,0.0
51882.0,STARLINK-3570,PAYLOAD,2023-11-08 22:31:04,15.08864465,0.000127,53.2159,222.7937,94.7209,265.3928,0.00025524,3.779e-05,0.0,0 STARLINK-3570,1 51882U 22022AG  23312.93824893  .00003779  00000-0  25524-3 0  9996,2 51882  53.2159 222.7937 0001270  94.7209 265.3928 15.08864465 94717,6917.806,95.436,540.549,538.792,0.0
51882.0,STARLINK-3570,PAYLOAD,2023-11-09 01:41:50,15.08869438,0.0001259,53.2159,222.199,91.2437,268.8699,0.00033553,5.06e-05,0.0,0 STARLINK-3570,1 51882U 22022AG  23313.07072584  .00005060  00000-0  33553-3 0  9990,2 51882  53.2159 222.1990 0001259  91.2437 268.8699 15.08869438 94732,6917.79,95.436,540.526,538.784,0.0
51882.0,STARLINK-3570,PAYLOAD,2023-11-09 22:21:51,15.08841679,0.0001426,53.2162,218.341,96.134,263.9814,0.00060472,9.35e-05,0.0,0 STARLINK-3570,1 51882U 22022AG  23313.93184983  .00009350  00000-0  60472-3 0  9998,2 51882  53.2162 218.3410 0001426  96.1340 263.9814 15.08841679 94869,6917.875,95.437,540.727,538.754,0.0
51882.0,STARLINK-3570,PAYLOAD,2023-11-10 01:32:37,15.08848443,0.0001518,53.2162,217.7404,92.6917,267.4249,0.00041653,6.349e-05,0.0,0 STARLINK-3570,1 51882U 22022AG  23314.06432727  .00006349  00000-0  41653-3 0  9990,2 51882  53.2162 217.7404 0001518  92.6917 267.4249 15.08848443 94887,6917.855,95.437,540.77,538.669,0.0
51882.0,STARLINK-3570,PAYLOAD,2023-11-10 22:12:38,15.08842387,0.0001536,53.2156,213.8719,114.3119,245.8034,0.00029455,4.403e-05,0.0,0 STARLINK-3570,1 51882U 22022AG  23314.92544872  .00004403  00000-0  29455-3 0  9995,2 51882  53.2156 213.8719 0001536 114.3119 245.8034 15.08842387 95011,6917.873,95.437,540.801,538.676,0.0
51882.0,STARLINK-3570,PAYLOAD,2023-11-11 02:58:48,15.08852608,0.0001645,53.2173,212.9777,91.2162,268.9019,0.00078854,0.00012288,0.0,0 STARLINK-3570,1 51882U 22022AG  23315.12416702  .00012288  00000-0  78854-3 0  9995,2 51882  53.2173 212.9777 0001645  91.2162 268.9019 15.08852608 95045,6917.842,95.437,540.845,538.569,0.0
51882.0,STARLINK-3570,PAYLOAD,2023-11-11 10:55:43,15.08846685,0.0002006,53.2174,211.4886,100.9039,259.2179,0.00048509,7.442e-05,0.0,0 STARLINK-3570,1 51882U 22022AG  23315.45536784  .00007442  00000-0  48509-3 0  9994,2 51882  53.2174 211.4886 0002006 100.9039 259.2179 15.08846685 95097,6917.86,95.437,541.113,538.337,0.0
